PHISAT 2                
1 60470U 24149C   26068.78834181  .00008925  00000+0  31421-3 0  9996
2 60470  97.3806 148.6498 0001175 168.6230 191.5037 15.29548631 86792
STARLINK-36113          
1 66982U 25288Z   26068.24506035  .00028263  00000+0  10333-2 0  9995
2 66982  42.9997  25.5880 0001041 268.0745  91.9988 15.27560673 15225
